IRIDIUM 33 DEB          
1 33960U 97051BV  26065.02820288  .00027292  00000+0  28142-2 0  9992
2 33960  86.2490 250.0795 0002452 121.4320   1.3401 14.90093424901056
IRIDIUM 33 DEB          
1 33966U 97051CB  26065.27852529  .00003188  00000+0  81807-3 0  9994
2 33966  86.3971  10.1609 0005349 296.6293 181.3553 14.50026185896526
IRIDIUM 33 DEB          
1 34071U 97051CE  26065.24776817  .00003136  00000+0  80529-3 0  9997
2 34071  86.3501 341.5331 0006836 172.7359 187.3946 14.49982221895447
IRIDIUM 33 DEB          
1 34077U 97051CL  26065.28091887  .00009721  00000+0  17467-2 0  9990
2 34077  86.3892  14.6513 0012155  94.9668  27.5685 14.66537129895565
IRIDIUM 33 DEB          
1 34079U 97051CN  26065.19492191  .00016955  00000+0  18903-2 0  9998
2 34079  86.3788 330.6183 0009518  55.5711  65.1549 14.86930464902169
IRIDIUM 33 DEB          
1 34088U 97051CX  26065.27426302  .00041017  00000+0  34801-2 0  9990
2 34088  86.3867 352.1671 0001774  68.6504  48.2032 14.97743245899894
IRIDIUM 33 DEB          
1 34091U 97051DA  26064.96781664  .00048873  00000+0  50634-2 0  9993
2 34091  86.3446  28.4947 0032706  12.0729 348.1273 14.89401602891026
IRIDIUM 33 DEB          
1 34097U 97051DG  26065.18711729  .00004267  00000+0  14186-2 0  9990
2 34097  86.2014 324.5679 0083845  87.6983 273.3810 14.35518430883165
IRIDIUM 33 DEB          
1 34145U 97051DY  26064.83824078  .00003053  00000+0  89045-3 0  9996
2 34145  86.2090 295.5020 0052015 177.9819 182.1602 14.43065034888365
IRIDIUM 33 DEB          
1 34146U 97051DZ  26065.17600392  .00002733  00000+0  70213-3 0  9997
2 34146  86.2832 312.9418 0025792 311.9463 202.7182 14.49714855893155
IRIDIUM 33 DEB          
1 34159U 97051EN  26065.26973105  .00002044  00000+0  65678-3 0  9990
2 34159  86.3549  12.6148 0029002  17.4037 342.8148 14.38742294891604
IRIDIUM 33 DEB          
1 34350U 97051ES  26065.23507277  .00001590  00000+0  44296-3 0  9991
2 34350  86.3307 326.5912 0019312 218.3358 268.9854 14.45682981894997
IRIDIUM 33 DEB          
1 34366U 97051FJ  26065.27916683  .00005764  00000+0  13321-2 0  9998
2 34366  86.3731  12.9456 0018097 215.7735 276.0253 14.54969217893962
IRIDIUM 33 DEB          
1 34375U 97051FT  26065.23059823  .00001331  00000+0  60827-3 0  9998
2 34375  86.4351 149.0725 0100990 220.6885 166.2246 14.18172186878952
IRIDIUM 33 DEB          
1 34376U 97051FU  26065.16475808  .00008200  00000+0  15388-2 0  9999
2 34376  86.2993 328.9913 0022439 247.6619 112.2215 14.64469454892271
IRIDIUM 33 DEB          
1 34486U 97051GB  26065.26046988  .00033431  00000+0  25461-2 0  9992
2 34486  86.3943 333.3044 0009203 148.6473 338.7894 15.01896170902378
