[{"OBJECT_NAME":"IRIDIUM 33 DEB","OBJECT_ID":"1997-051BV","EPOCH":"2026-03-06T00:40:36.728832","MEAN_MOTION":14.90093424,"ECCENTRICITY":0.00024523,"INCLINATION":86.249,"RA_OF_ASC_NODE":250.0795,"ARG_OF_PERICENTER":121.432,"MEAN_ANOMALY":1.3401,"EPHEMERIS_TYPE":0,"CLASSIFICATION_TYPE":"U","NORAD_CAT_ID":33960,"ELEMENT_SET_NO":999,"REV_AT_EPOCH":90105,"BSTAR":0.0028141845,"MEAN_MOTION_DOT":0.00027292,"MEAN_MOTION_DDOT":0},{"OBJECT_NAME":"IRIDIUM 33 DEB","OBJECT_ID":"1997-051CB","EPOCH":"2026-03-06T06:41:04.585056","MEAN_MOTION":14.50026185,"ECCENTRICITY":0.00053498,"INCLINATION":86.3971,"RA_OF_ASC_NODE":10.1609,"ARG_OF_PERICENTER":296.6293,"MEAN_ANOMALY":181.3553,"EPHEMERIS_TYPE":0,"CLASSIFICATION_TYPE":"U","NORAD_CAT_ID":33966,"ELEMENT_SET_NO":999,"REV_AT_EPOCH":89652,"BSTAR":0.00081807081,"MEAN_MOTION_DOT":3.188e-5,"MEAN_MOTION_DDOT":0},{"OBJECT_NAME":"IRIDIUM 33 DEB","OBJECT_ID":"1997-051CE","EPOCH":"2026-03-06T05:56:47.169888","MEAN_MOTION":14.49982221,"ECCENTRICITY":0.00068364,"INCLINATION":86.3501,"RA_OF_ASC_NODE":341.5331,"ARG_OF_PERICENTER":172.7359,"MEAN_ANOMALY":187.3946,"EPHEMERIS_TYPE":0,"CLASSIFICATION_TYPE":"U","NORAD_CAT_ID":34071,"ELEMENT_SET_NO":999,"REV_AT_EPOCH":89544,"BSTAR":0.00080528653,"MEAN_MOTION_DOT":3.136e-5,"MEAN_MOTION_DDOT":0},{"OBJECT_NAME":"IRIDIUM 33 DEB","OBJECT_ID":"1997-051CL","EPOCH":"2026-03-06T06:44:31.390368","MEAN_MOTION":14.66537129,"ECCENTRICITY":0.00121556,"INCLINATION":86.3892,"RA_OF_ASC_NODE":14.6513,"ARG_OF_PERICENTER":94.9668,"MEAN_ANOMALY":27.5685,"EPHEMERIS_TYPE":0,"CLASSIFICATION_TYPE":"U","NORAD_CAT_ID":34077,"ELEMENT_SET_NO":999,"REV_AT_EPOCH":89556,"BSTAR":0.0017466765,"MEAN_MOTION_DOT":9.721e-5,"MEAN_MOTION_DDOT":0},{"OBJECT_NAME":"IRIDIUM 33 DEB","OBJECT_ID":"1997-051CN","EPOCH":"2026-03-06T04:40:41.253024","MEAN_MOTION":14.86930464,"ECCENTRICITY":0.00095184,"INCLINATION":86.3788,"RA_OF_ASC_NODE":330.6183,"ARG_OF_PERICENTER":55.5711,"MEAN_ANOMALY":65.1549,"EPHEMERIS_TYPE":0,"CLASSIFICATION_TYPE":"U","NORAD_CAT_ID":34079,"ELEMENT_SET_NO":999,"REV_AT_EPOCH":90216,"BSTAR":0.0018902934,"MEAN_MOTION_DOT":0.00016955,"MEAN_MOTION_DDOT":0},{"OBJECT_NAME":"IRIDIUM 33 DEB","OBJECT_ID":"1997-051CX","EPOCH":"2026-03-06T06:34:56.324928","MEAN_MOTION":14.97743245,"ECCENTRICITY":0.00017741,"INCLINATION":86.3867,"RA_OF_ASC_NODE":352.1671,"ARG_OF_PERICENTER":68.6504,"MEAN_ANOMALY":48.2032,"EPHEMERIS_TYPE":0,"CLASSIFICATION_TYPE":"U","NORAD_CAT_ID":34088,"ELEMENT_SET_NO":999,"REV_AT_EPOCH":89989,"BSTAR":0.0034800854,"MEAN_MOTION_DOT":0.00041017,"MEAN_MOTION_DDOT":0},{"OBJECT_NAME":"IRIDIUM 33 DEB","OBJECT_ID":"1997-051DA","EPOCH":"2026-03-05T23:13:39.357696","MEAN_MOTION":14.89401602,"ECCENTRICITY":0.00327067,"INCLINATION":86.3446,"RA_OF_ASC_NODE":28.4947,"ARG_OF_PERICENTER":12.0729,"MEAN_ANOMALY":348.1273,"EPHEMERIS_TYPE":0,"CLASSIFICATION_TYPE":"U","NORAD_CAT_ID":34091,"ELEMENT_SET_NO":999,"REV_AT_EPOCH":89102,"BSTAR":0.0050633559,"MEAN_MOTION_DOT":0.00048873,"MEAN_MOTION_DDOT":0},{"OBJECT_NAME":"IRIDIUM 33 DEB","OBJECT_ID":"1997-051DG","EPOCH":"2026-03-06T04:29:26.933856","MEAN_MOTION":14.3551843,"ECCENTRICITY":0.00838453,"INCLINATION":86.2014,"RA_OF_ASC_NODE":324.5679,"ARG_OF_PERICENTER":87.6983,"MEAN_ANOMALY":273.381,"EPHEMERIS_TYPE":0,"CLASSIFICATION_TYPE":"U","NORAD_CAT_ID":34097,"ELEMENT_SET_NO":999,"REV_AT_EPOCH":88316,"BSTAR":0.0014185881,"MEAN_MOTION_DOT":4.267e-5,"MEAN_MOTION_DDOT":0},{"OBJECT_NAME":"IRIDIUM 33 DEB","OBJECT_ID":"1997-051DY","EPOCH":"2026-03-05T20:07:04.003392","MEAN_MOTION":14.43065034,"ECCENTRICITY":0.00520152,"INCLINATION":86.209,"RA_OF_ASC_NODE":295.502,"ARG_OF_PERICENTER":177.9819,"MEAN_ANOMALY":182.1602,"EPHEMERIS_TYPE":0,"CLASSIFICATION_TYPE":"U","NORAD_CAT_ID":34145,"ELEMENT_SET_NO":999,"REV_AT_EPOCH":88836,"BSTAR":0.00089045351,"MEAN_MOTION_DOT":3.053e-5,"MEAN_MOTION_DDOT":0},{"OBJECT_NAME":"IRIDIUM 33 DEB","OBJECT_ID":"1997-051DZ","EPOCH":"2026-03-06T04:13:26.738688","MEAN_MOTION":14.49714855,"ECCENTRICITY":0.00257928,"INCLINATION":86.2832,"RA_OF_ASC_NODE":312.9418,"ARG_OF_PERICENTER":311.9463,"MEAN_ANOMALY":202.7182,"EPHEMERIS_TYPE":0,"CLASSIFICATION_TYPE":"U","NORAD_CAT_ID":34146,"ELEMENT_SET_NO":999,"REV_AT_EPOCH":89315,"BSTAR":0.00070213019,"MEAN_MOTION_DOT":2.733e-5,"MEAN_MOTION_DDOT":0},{"OBJECT_NAME":"IRIDIUM 33 DEB","OBJECT_ID":"1997-051EN","EPOCH":"2026-03-06T06:28:24.762720","MEAN_MOTION":14.38742294,"ECCENTRICITY":0.00290028,"INCLINATION":86.3549,"RA_OF_ASC_NODE":12.6148,"ARG_OF_PERICENTER":17.4037,"MEAN_ANOMALY":342.8148,"EPHEMERIS_TYPE":0,"CLASSIFICATION_TYPE":"U","NORAD_CAT_ID":34159,"ELEMENT_SET_NO":999,"REV_AT_EPOCH":89160,"BSTAR":0.00065678193,"MEAN_MOTION_DOT":2.044e-5,"MEAN_MOTION_DDOT":0},{"OBJECT_NAME":"IRIDIUM 33 DEB","OBJECT_ID":"1997-051ES","EPOCH":"2026-03-06T05:38:30.287328","MEAN_MOTION":14.45682981,"ECCENTRICITY":0.00193128,"INCLINATION":86.3307,"RA_OF_ASC_NODE":326.5912,"ARG_OF_PERICENTER":218.3358,"MEAN_ANOMALY":268.9854,"EPHEMERIS_TYPE":0,"CLASSIFICATION_TYPE":"U","NORAD_CAT_ID":34350,"ELEMENT_SET_NO":999,"REV_AT_EPOCH":89499,"BSTAR":0.00044296093,"MEAN_MOTION_DOT":1.59e-5,"MEAN_MOTION_DDOT":0},{"OBJECT_NAME":"IRIDIUM 33 DEB","OBJECT_ID":"1997-051FJ","EPOCH":"2026-03-06T06:42:00.014112","MEAN_MOTION":14.54969217,"ECCENTRICITY":0.00180972,"INCLINATION":86.3731,"RA_OF_ASC_NODE":12.9456,"ARG_OF_PERICENTER":215.7735,"MEAN_ANOMALY":276.0253,"EPHEMERIS_TYPE":0,"CLASSIFICATION_TYPE":"U","NORAD_CAT_ID":34366,"ELEMENT_SET_NO":999,"REV_AT_EPOCH":89396,"BSTAR":0.0013320741,"MEAN_MOTION_DOT":5.764e-5,"MEAN_MOTION_DDOT":0},{"OBJECT_NAME":"IRIDIUM 33 DEB","OBJECT_ID":"1997-051FT","EPOCH":"2026-03-06T05:32:03.687072","MEAN_MOTION":14.18172186,"ECCENTRICITY":0.01009904,"INCLINATION":86.4351,"RA_OF_ASC_NODE":149.0725,"ARG_OF_PERICENTER":220.6885,"MEAN_ANOMALY":166.2246,"EPHEMERIS_TYPE":0,"CLASSIFICATION_TYPE":"U","NORAD_CAT_ID":34375,"ELEMENT_SET_NO":999,"REV_AT_EPOCH":87895,"BSTAR":0.00060826534,"MEAN_MOTION_DOT":1.331e-5,"MEAN_MOTION_DDOT":0},{"OBJECT_NAME":"IRIDIUM 33 DEB","OBJECT_ID":"1997-051FU","EPOCH":"2026-03-06T03:57:15.098112","MEAN_MOTION":14.64469454,"ECCENTRICITY":0.00224393,"INCLINATION":86.2993,"RA_OF_ASC_NODE":328.9913,"ARG_OF_PERICENTER":247.6619,"MEAN_ANOMALY":112.2215,"EPHEMERIS_TYPE":0,"CLASSIFICATION_TYPE":"U","NORAD_CAT_ID":34376,"ELEMENT_SET_NO":999,"REV_AT_EPOCH":89227,"BSTAR":0.001538799,"MEAN_MOTION_DOT":8.2e-5,"MEAN_MOTION_DDOT":0},{"OBJECT_NAME":"IRIDIUM 33 DEB","OBJECT_ID":"1997-051GB","EPOCH":"2026-03-06T06:15:04.597632","MEAN_MOTION":15.0189617,"ECCENTRICITY":0.00092033,"INCLINATION":86.3943,"RA_OF_ASC_NODE":333.3044,"ARG_OF_PERICENTER":148.6473,"MEAN_ANOMALY":338.7894,"EPHEMERIS_TYPE":0,"CLASSIFICATION_TYPE":"U","NORAD_CAT_ID":34486,"ELEMENT_SET_NO":999,"REV_AT_EPOCH":90237,"BSTAR":0.0025460555,"MEAN_MOTION_DOT":0.00033431,"MEAN_MOTION_DDOT":0}]
